[{"OBJECT_NAME":"STARLINK-37036","OBJECT_ID":"2026-042J","EPOCH":"2026-03-18T06:00:02.000160","MEAN_MOTION":15.81226318,"ECCENTRICITY":0.00012016,"INCLINATION":53.1591,"RA_OF_ASC_NODE":151.8069,"ARG_OF_PERICENTER":74.3999,"MEAN_ANOMALY":68.9817,"EPHEMERIS_TYPE":0,"CLASSIFICATION_TYPE":"U","NORAD_CAT_ID":68077,"ELEMENT_SET_NO":999,"REV_AT_EPOCH":342,"BSTAR":-0.0093334774,"MEAN_MOTION_DOT":-0.01632529,"MEAN_MOTION_DDOT":0},{"OBJECT_NAME":"STARLINK-36973","OBJECT_ID":"2026-042K","EPOCH":"2026-03-18T06:00:02.000160","MEAN_MOTION":15.80854463,"ECCENTRICITY":0.00012831,"INCLINATION":53.1594,"RA_OF_ASC_NODE":151.7893,"ARG_OF_PERICENTER":90.3608,"MEAN_ANOMALY":61.6125,"EPHEMERIS_TYPE":0,"CLASSIFICATION_TYPE":"U","NORAD_CAT_ID":68078,"ELEMENT_SET_NO":999,"REV_AT_EPOCH":342,"BSTAR":0.00021948052,"MEAN_MOTION_DOT":0.00042797,"MEAN_MOTION_DDOT":0},{"OBJECT_NAME":"STARLINK-37063","OBJECT_ID":"2026-042L","EPOCH":"2026-03-18T06:00:02.000160","MEAN_MOTION":15.80834637,"ECCENTRICITY":0.00013582,"INCLINATION":53.1593,"RA_OF_ASC_NODE":151.7981,"ARG_OF_PERICENTER":99.8111,"MEAN_ANOMALY":47.9015,"EPHEMERIS_TYPE":0,"CLASSIFICATION_TYPE":"U","NORAD_CAT_ID":68079,"ELEMENT_SET_NO":999,"REV_AT_EPOCH":342,"BSTAR":0.00038838545,"MEAN_MOTION_DOT":0.00076502,"MEAN_MOTION_DDOT":0},{"OBJECT_NAME":"STARLINK-37051","OBJECT_ID":"2026-042M","EPOCH":"2026-03-18T06:00:02.000160","MEAN_MOTION":15.80834341,"ECCENTRICITY":0.00014339,"INCLINATION":53.1591,"RA_OF_ASC_NODE":151.7714,"ARG_OF_PERICENTER":111.749,"MEAN_ANOMALY":48.7771,"EPHEMERIS_TYPE":0,"CLASSIFICATION_TYPE":"U","NORAD_CAT_ID":68080,"ELEMENT_SET_NO":999,"REV_AT_EPOCH":342,"BSTAR":0.00039772356,"MEAN_MOTION_DOT":0.00078374,"MEAN_MOTION_DDOT":0},{"OBJECT_NAME":"STARLINK-37066","OBJECT_ID":"2026-042N","EPOCH":"2026-03-18T06:00:02.000160","MEAN_MOTION":15.80831331,"ECCENTRICITY":0.00016295,"INCLINATION":53.1597,"RA_OF_ASC_NODE":151.7807,"ARG_OF_PERICENTER":68.8321,"MEAN_ANOMALY":87.419,"EPHEMERIS_TYPE":0,"CLASSIFICATION_TYPE":"U","NORAD_CAT_ID":68081,"ELEMENT_SET_NO":999,"REV_AT_EPOCH":342,"BSTAR":0.00047583075,"MEAN_MOTION_DOT":0.00094063,"MEAN_MOTION_DDOT":0},{"OBJECT_NAME":"STARLINK-37054","OBJECT_ID":"2026-042P","EPOCH":"2026-03-18T06:00:02.000160","MEAN_MOTION":15.80862257,"ECCENTRICITY":0.0001332,"INCLINATION":53.1622,"RA_OF_ASC_NODE":151.7624,"ARG_OF_PERICENTER":84.2928,"MEAN_ANOMALY":80.4909,"EPHEMERIS_TYPE":0,"CLASSIFICATION_TYPE":"U","NORAD_CAT_ID":68082,"ELEMENT_SET_NO":999,"REV_AT_EPOCH":342,"BSTAR":0.00014228636,"MEAN_MOTION_DOT":0.00027459,"MEAN_MOTION_DDOT":0},{"OBJECT_NAME":"STARLINK-37065","OBJECT_ID":"2026-042Q","EPOCH":"2026-03-18T06:00:02.000160","MEAN_MOTION":15.81234808,"ECCENTRICITY":0.00015234,"INCLINATION":53.1595,"RA_OF_ASC_NODE":151.7536,"ARG_OF_PERICENTER":102.8747,"MEAN_ANOMALY":66.1155,"EPHEMERIS_TYPE":0,"CLASSIFICATION_TYPE":"U","NORAD_CAT_ID":68083,"ELEMENT_SET_NO":999,"REV_AT_EPOCH":342,"BSTAR":-0.0062723342,"MEAN_MOTION_DOT":-0.01128238,"MEAN_MOTION_DDOT":0},{"OBJECT_NAME":"STARLINK-37037","OBJECT_ID":"2026-042R","EPOCH":"2026-03-18T06:00:02.000160","MEAN_MOTION":15.80849743,"ECCENTRICITY":0.00013172,"INCLINATION":53.1592,"RA_OF_ASC_NODE":151.7448,"ARG_OF_PERICENTER":99.3567,"MEAN_ANOMALY":73.9756,"EPHEMERIS_TYPE":0,"CLASSIFICATION_TYPE":"U","NORAD_CAT_ID":68084,"ELEMENT_SET_NO":999,"REV_AT_EPOCH":342,"BSTAR":0.00027807734,"MEAN_MOTION_DOT":0.00054472,"MEAN_MOTION_DDOT":0},{"OBJECT_NAME":"STARLINK-37068","OBJECT_ID":"2026-042S","EPOCH":"2026-03-18T06:00:02.000160","MEAN_MOTION":15.80827725,"ECCENTRICITY":0.00010955,"INCLINATION":53.1592,"RA_OF_ASC_NODE":151.7358,"ARG_OF_PERICENTER":113.5573,"MEAN_ANOMALY":64.0504,"EPHEMERIS_TYPE":0,"CLASSIFICATION_TYPE":"U","NORAD_CAT_ID":68085,"ELEMENT_SET_NO":999,"REV_AT_EPOCH":342,"BSTAR":0.00050104671,"MEAN_MOTION_DOT":0.00099125,"MEAN_MOTION_DDOT":0},{"OBJECT_NAME":"STARLINK-37067","OBJECT_ID":"2026-042T","EPOCH":"2026-03-18T06:00:02.000160","MEAN_MOTION":15.8076794,"ECCENTRICITY":7.468e-5,"INCLINATION":53.1592,"RA_OF_ASC_NODE":151.7273,"ARG_OF_PERICENTER":78.5256,"MEAN_ANOMALY":103.4002,"EPHEMERIS_TYPE":0,"CLASSIFICATION_TYPE":"U","NORAD_CAT_ID":68086,"ELEMENT_SET_NO":999,"REV_AT_EPOCH":342,"BSTAR":0.00087256046,"MEAN_MOTION_DOT":0.00174186,"MEAN_MOTION_DDOT":0},{"OBJECT_NAME":"STARLINK-37062","OBJECT_ID":"2026-042U","EPOCH":"2026-03-18T06:00:02.000160","MEAN_MOTION":15.80846418,"ECCENTRICITY":0.00017578,"INCLINATION":53.1593,"RA_OF_ASC_NODE":151.7183,"ARG_OF_PERICENTER":88.2484,"MEAN_ANOMALY":97.8892,"EPHEMERIS_TYPE":0,"CLASSIFICATION_TYPE":"U","NORAD_CAT_ID":68087,"ELEMENT_SET_NO":999,"REV_AT_EPOCH":342,"BSTAR":0.00047755553,"MEAN_MOTION_DOT":0.00094478,"MEAN_MOTION_DDOT":0},{"OBJECT_NAME":"STARLINK-37059","OBJECT_ID":"2026-042V","EPOCH":"2026-03-18T06:00:02.000160","MEAN_MOTION":15.80842834,"ECCENTRICITY":0.00012278,"INCLINATION":53.1592,"RA_OF_ASC_NODE":151.7094,"ARG_OF_PERICENTER":91.4179,"MEAN_ANOMALY":99.0011,"EPHEMERIS_TYPE":0,"CLASSIFICATION_TYPE":"U","NORAD_CAT_ID":68088,"ELEMENT_SET_NO":999,"REV_AT_EPOCH":342,"BSTAR":0.00031471276,"MEAN_MOTION_DOT":0.00061774,"MEAN_MOTION_DDOT":0},{"OBJECT_NAME":"STARLINK-37004","OBJECT_ID":"2026-042W","EPOCH":"2026-03-18T06:00:02.000160","MEAN_MOTION":15.80859902,"ECCENTRICITY":0.0001197,"INCLINATION":53.1621,"RA_OF_ASC_NODE":151.7004,"ARG_OF_PERICENTER":102.3736,"MEAN_ANOMALY":92.3166,"EPHEMERIS_TYPE":0,"CLASSIFICATION_TYPE":"U","NORAD_CAT_ID":68089,"ELEMENT_SET_NO":999,"REV_AT_EPOCH":342,"BSTAR":0.00012081601,"MEAN_MOTION_DOT":0.00023196,"MEAN_MOTION_DDOT":0},{"OBJECT_NAME":"STARLINK-36320","OBJECT_ID":"2026-042X","EPOCH":"2026-03-18T06:00:02.000160","MEAN_MOTION":15.80859336,"ECCENTRICITY":0.00012328,"INCLINATION":53.1594,"RA_OF_ASC_NODE":151.6831,"ARG_OF_PERICENTER":108.7637,"MEAN_ANOMALY":94.4574,"EPHEMERIS_TYPE":0,"CLASSIFICATION_TYPE":"U","NORAD_CAT_ID":68090,"ELEMENT_SET_NO":999,"REV_AT_EPOCH":341,"BSTAR":0.00030226996,"MEAN_MOTION_DOT":0.00059332,"MEAN_MOTION_DDOT":0},{"OBJECT_NAME":"STARLINK-36324","OBJECT_ID":"2026-042Y","EPOCH":"2026-03-18T06:00:02.000160","MEAN_MOTION":15.80590426,"ECCENTRICITY":0.00013797,"INCLINATION":53.1595,"RA_OF_ASC_NODE":151.6915,"ARG_OF_PERICENTER":105.0681,"MEAN_ANOMALY":93.8321,"EPHEMERIS_TYPE":0,"CLASSIFICATION_TYPE":"U","NORAD_CAT_ID":68091,"ELEMENT_SET_NO":999,"REV_AT_EPOCH":341,"BSTAR":-0.011290653,"MEAN_MOTION_DOT":-0.01917671,"MEAN_MOTION_DDOT":0},{"OBJECT_NAME":"STARLINK-36896","OBJECT_ID":"2026-042Z","EPOCH":"2026-03-18T06:00:02.000160","MEAN_MOTION":15.80850367,"ECCENTRICITY":0.00015528,"INCLINATION":53.1594,"RA_OF_ASC_NODE":151.674,"ARG_OF_PERICENTER":104.874,"MEAN_ANOMALY":102.6261,"EPHEMERIS_TYPE":0,"CLASSIFICATION_TYPE":"U","NORAD_CAT_ID":68092,"ELEMENT_SET_NO":999,"REV_AT_EPOCH":342,"BSTAR":0.00039083566,"MEAN_MOTION_DOT":0.0007705,"MEAN_MOTION_DDOT":0}]
