STARLINK-37036          
1 68077U 26042J   26077.25002315 -.01632529  00000+0 -93335-2 0  9996
2 68077  53.1591 151.8069 0001201  74.3999  68.9817 15.81226318  3424
STARLINK-36973          
1 68078U 26042K   26077.25002315  .00042797  00000+0  21948-3 0  9998
2 68078  53.1594 151.7893 0001283  90.3608  61.6125 15.80854463  3426
STARLINK-37063          
1 68079U 26042L   26077.25002315  .00076502  00000+0  38839-3 0  9997
2 68079  53.1593 151.7981 0001358  99.8111  47.9015 15.80834637  3426
STARLINK-37051          
1 68080U 26042M   26077.25002315  .00078374  00000+0  39772-3 0  9995
2 68080  53.1591 151.7714 0001433 111.7490  48.7771 15.80834341  3428
STARLINK-37066          
1 68081U 26042N   26077.25002315  .00094063  00000+0  47583-3 0  9998
2 68081  53.1597 151.7807 0001629  68.8321  87.4190 15.80831331  3421
STARLINK-37054          
1 68082U 26042P   26077.25002315  .00027459  00000+0  14229-3 0  9995
2 68082  53.1622 151.7624 0001332  84.2928  80.4909 15.80862257  3426
STARLINK-37065          
1 68083U 26042Q   26077.25002315 -.01128238  00000+0 -62723-2 0  9997
2 68083  53.1595 151.7536 0001523 102.8747  66.1155 15.81234808  3426
STARLINK-37037          
1 68084U 26042R   26077.25002315  .00054472  00000+0  27808-3 0  9999
2 68084  53.1592 151.7448 0001317  99.3567  73.9756 15.80849743  3429
STARLINK-37068          
1 68085U 26042S   26077.25002315  .00099125  00000+0  50105-3 0  9990
2 68085  53.1592 151.7358 0001095 113.5573  64.0504 15.80827725  3427
STARLINK-37067          
1 68086U 26042T   26077.25002315  .00174186  00000+0  87256-3 0  9999
2 68086  53.1592 151.7273 0000746  78.5256 103.4002 15.80767940  3427
STARLINK-37062          
1 68087U 26042U   26077.25002315  .00094478  00000+0  47756-3 0  9996
2 68087  53.1593 151.7183 0001757  88.2484  97.8892 15.80846418  3424
STARLINK-37059          
1 68088U 26042V   26077.25002315  .00061774  00000+0  31471-3 0  9997
2 68088  53.1592 151.7094 0001227  91.4179  99.0011 15.80842834  3429
STARLINK-37004          
1 68089U 26042W   26077.25002315  .00023196  00000+0  12082-3 0  9991
2 68089  53.1621 151.7004 0001197 102.3736  92.3166 15.80859902  3422
STARLINK-36320          
1 68090U 26042X   26077.25002315  .00059332  00000+0  30227-3 0  9995
2 68090  53.1594 151.6831 0001232 108.7637  94.4574 15.80859336  3416
STARLINK-36324          
1 68091U 26042Y   26077.25002315 -.01917671  00000+0 -11291-1 0  9996
2 68091  53.1595 151.6915 0001379 105.0681  93.8321 15.80590426  3417
STARLINK-36896          
1 68092U 26042Z   26077.25002315  .00077050  00000+0  39084-3 0  9994
2 68092  53.1594 151.6740 0001552 104.8740 102.6261 15.80850367  3425
